[{"OBJECT_ID":"2000-046B","OBJECT_NAME":"NILESAT 102","NORAD_CAT_ID":"26470","OBJECT_TYPE":"PAYLOAD","PERIOD":"1436.091","INCLINATION":"1.0652","APOGEE":"35810.118","PERIGEE":"35762.869","ECCENTRICITY":"0.0005603","MEAN_MOTION":"1.00272152","TLE_LINE1":"1 26470U 00046B   16239.13452203 -.00000086  00000-0  00000+0 0  9994","TLE_LINE2":"2 26470   1.0652  84.8581 0005603 104.8834 186.5051  1.00272152 58729","LAUNCH_DATE":"2000-08-17","LAUNCH_SITE":"FRENCH GUIANA","OWNER":"EGYPT","ORBIT_TYPE":"Geosynchronous","OPERATIONAL_STATUS":"Operational","satInfo":{"lng":64.80833178687551,"lat":-3.219320255809087,"elevation":-11.695495406229227,"azimuth":250.19166821312447,"range":43044.61246168176,"height":35839.37242398733,"velocity":3.072057256086491},"x":324,"y":-153},{"OBJECT_ID":"2000-054A","OBJECT_NAME":"ASTRA 2B","NORAD_CAT_ID":"26494","OBJECT_TYPE":"PAYLOAD","PERIOD":"1436.132","INCLINATION":"1.6058","APOGEE":"35809.118","PERIGEE":"35765.460","ECCENTRICITY":"0.0005177","MEAN_MOTION":"1.00269316","TLE_LINE1":"1 26494U 00054A   16238.78927867 +.00000124 +00000-0 +00000-0 0  9995","TLE_LINE2":"2 26494 001.6058 079.9178 0005177 038.7572 178.9249 01.00269316010964","LAUNCH_DATE":"2000-09-14","LAUNCH_SITE":"FRENCH GUIANA","OWNER":"SOCIÉTÉ EUROPÉENNE DES SATELLITES","ORBIT_TYPE":"Geosynchronous","OPERATIONAL_STATUS":"Operational","satInfo":{"lng":96.5345976544641,"lat":-2.286695623601747,"elevation":-10.80298327708763,"azimuth":218.4654023455359,"range":42881.58511584876,"height":35777.0136506526,"velocity":3.0747662947947303},"x":355,"y":41},{"OBJECT_ID":"2000-054B","OBJECT_NAME":"AMC-7 (GE-7)","NORAD_CAT_ID":"26495","OBJECT_TYPE":"PAYLOAD","PERIOD":"1436.105","INCLINATION":"0.0028","APOGEE":"35792.832","PERIGEE":"35780.714","ECCENTRICITY":"0.0001437","MEAN_MOTION":"1.00271156","TLE_LINE1":"1 26495U 00054B   16238.44662912  .00000061  00000-0  00000+0 0  9995","TLE_LINE2":"2 26495   0.0028  93.5608 0001437 113.0378 153.3940  1.00271156 58334","LAUNCH_DATE":"2000-09-14","LAUNCH_SITE":"FRENCH GUIANA","OWNER":"SOCIÉTÉ EUROPÉENNE DES SATELLITES","ORBIT_TYPE":"Geosynchronous","OPERATIONAL_STATUS":"Operational","satInfo":{"lng":-117.32344217971249,"lat":2.3180824673642864,"elevation":-6.3067219146328375,"azimuth":72.32344217971244,"range":42367.98175691757,"height":35767.8909410369,"velocity":3.075522969069589},"x":-318,"y":164},{"OBJECT_ID":"2000-059A","OBJECT_NAME":"NSS 11 (AAP-1)","NORAD_CAT_ID":"26554","OBJECT_TYPE":"PAYLOAD","PERIOD":"1436.120","INCLINATION":"0.0579","APOGEE":"35795.737","PERIGEE":"35778.381","ECCENTRICITY":"0.0002058","MEAN_MOTION":"1.00270135","TLE_LINE1":"1 26554U 00059A   16238.80514263 -.00000372  00000-0  00000+0 0  9997","TLE_LINE2":"2 26554   0.0579 289.4616 0002058 210.6722 232.3917  1.00270135 58252","LAUNCH_DATE":"2000-10-01","LAUNCH_SITE":"TYURATAM MISSILE AND SPACE COMPLEX","OWNER":"SOCIÉTÉ EUROPÉENNE DES SATELLITES","ORBIT_TYPE":"Geosynchronous","OPERATIONAL_STATUS":"Operational","satInfo":{"lng":48.56048103800674,"lat":1.9917889501455237,"elevation":-6.619428714969142,"azimuth":266.4395189619932,"range":42441.796747280234,"height":35806.19266553869,"velocity":3.0736891561515938},"x":268,"y":-237},{"OBJECT_ID":"2000-060A","OBJECT_NAME":"NSAT 110","NORAD_CAT_ID":"26559","OBJECT_TYPE":"PAYLOAD","PERIOD":"1436.018","INCLINATION":"0.0413","APOGEE":"35787.181","PERIGEE":"35782.948","ECCENTRICITY":"5.02e-05","MEAN_MOTION":"1.00277249","TLE_LINE1":"1 26559U 00060A   16239.41875215 -.00000380  00000-0  00000+0 0  9998","TLE_LINE2":"2 26559   0.0413 288.1903 0000502  63.0790 244.6471  1.00277249 58193","LAUNCH_DATE":"2000-10-06","LAUNCH_SITE":"FRENCH GUIANA","OWNER":"JAPAN","ORBIT_TYPE":"Geosynchronous","OPERATIONAL_STATUS":"Operational","satInfo":{"lng":52.41839317208254,"lat":2.0904715284613897,"elevation":-6.523780191947464,"azimuth":262.5816068279175,"range":42424.84704446273,"height":35800.042368284565,"velocity":3.074283270750332},"x":284,"y":-218},{"OBJECT_ID":"2000-067A","OBJECT_NAME":"AMC-6 (GE-6)","NORAD_CAT_ID":"26580","OBJECT_TYPE":"PAYLOAD","PERIOD":"1436.123","INCLINATION":"0.0479","APOGEE":"35799.084","PERIGEE":"35775.168","ECCENTRICITY":"0.0002836","MEAN_MOTION":"1.00269895","TLE_LINE1":"1 26580U 00067A   16239.27101584 -.00000287  00000-0  00000+0 0  9990","TLE_LINE2":"2 26580   0.0479 295.8019 0002836 240.9369 183.7494  1.00269895 58075","LAUNCH_DATE":"2000-10-21","LAUNCH_SITE":"TYURATAM MISSILE AND SPACE COMPLEX","OWNER":"SOCIÉTÉ EUROPÉENNE DES SATELLITES","ORBIT_TYPE":"Geosynchronous","OPERATIONAL_STATUS":"Operational","satInfo":{"lng":-89.80945775897278,"lat":-2.063885512556426,"elevation":-10.584188000291899,"azimuth":44.80945775897274,"range":42868.97884046594,"height":35788.7986771079,"velocity":3.0750411678800136},"x":-358,"y":-1},{"OBJECT_ID":"2000-068A","OBJECT_NAME":"INTELSAT 12 (PAS 12)","NORAD_CAT_ID":"26590","OBJECT_TYPE":"PAYLOAD","PERIOD":"1436.106","INCLINATION":"0.0559","APOGEE":"35797.130","PERIGEE":"35776.452","ECCENTRICITY":"0.0002452","MEAN_MOTION":"1.0027109","TLE_LINE1":"1 26590U 00068A   16238.78943113  .00000110  00000-0  00000+0 0  9993","TLE_LINE2":"2 26590   0.0559 271.2995 0002452 276.4860 115.8519  1.00271090 57871","LAUNCH_DATE":"2000-10-29","LAUNCH_SITE":"FRENCH GUIANA","OWNER":"EUROPEAN SPACE AGENCY","ORBIT_TYPE":"Geosynchronous","OPERATIONAL_STATUS":"Operational","satInfo":{"lng":100.17558072292634,"lat":1.5805872588045338,"elevation":-7.026823906147893,"azimuth":214.82441927707362,"range":42467.88289943462,"height":35786.795877836936,"velocity":3.0743167272037075},"x":352,"y":63},{"OBJECT_ID":"2000-072A","OBJECT_NAME":"INTELSAT 1R (PAS 1R)","NORAD_CAT_ID":"26608","OBJECT_TYPE":"PAYLOAD","PERIOD":"1436.131","INCLINATION":"0.0525","APOGEE":"35791.972","PERIGEE":"35782.595","ECCENTRICITY":"0.0001112","MEAN_MOTION":"1.00269335","TLE_LINE1":"1 26608U 00072A   16238.09643770 -.00000308  00000-0  00000+0 0  9998","TLE_LINE2":"2 26608   0.0525 293.1629 0001112 275.7967 109.4630  1.00269335 57729","LAUNCH_DATE":"2000-11-16","LAUNCH_SITE":"FRENCH GUIANA","OWNER":"UNITED STATES OF AMERICA","ORBIT_TYPE":"Geosynchronous","OPERATIONAL_STATUS":"Operational","satInfo":{"lng":-52.27008351432409,"lat":-1.333448975600807,"elevation":-9.874021169176158,"azimuth":7.270083514324066,"range":42787.82333658847,"height":35787.285107115145,"velocity":3.0748406893240614},"x":-283,"y":-219},{"OBJECT_ID":"2000-076A","OBJECT_NAME":"ANIK F1","NORAD_CAT_ID":"26624","OBJECT_TYPE":"PAYLOAD","PERIOD":"1436.095","INCLINATION":"0.0162","APOGEE":"35799.458","PERIGEE":"35773.678","ECCENTRICITY":"0.0003057","MEAN_MOTION":"1.00271887","TLE_LINE1":"1 26624U 00076A   16238.37019778 -.00000100 +00000-0 +00000-0 0  9997","TLE_LINE2":"2 26624 000.0162 149.6627 0003057 006.2149 204.1312 01.00271887007209","LAUNCH_DATE":"2000-11-21","LAUNCH_SITE":"FRENCH GUIANA","OWNER":"CANADA","ORBIT_TYPE":"Geosynchronous","OPERATIONAL_STATUS":"Operational","satInfo":{"lng":-105.01909315779656,"lat":1.0314579518197986,"elevation":-7.567913210771477,"azimuth":60.01909315779651,"range":42513.842698076856,"height":35772.209818584524,"velocity":3.075677781756339},"x":-346,"y":93},{"OBJECT_ID":"2000-081B","OBJECT_NAME":"AMC-8 (GE-8)","NORAD_CAT_ID":"26639","OBJECT_TYPE":"PAYLOAD","PERIOD":"1436.048","INCLINATION":"0.0661","APOGEE":"35795.848","PERIGEE":"35775.449","ECCENTRICITY":"0.0002419","MEAN_MOTION":"1.00275168","TLE_LINE1":"1 26639U 00081B   16239.27202251  .00000076  00000-0  00000+0 0  9999","TLE_LINE2":"2 26639   0.0661 287.8686 0002419 211.2755 154.7363  1.00275168 57354","LAUNCH_DATE":"2000-12-20","LAUNCH_SITE":"FRENCH GUIANA","OWNER":"SOCIÉTÉ EUROPÉENNE DES SATELLITES","ORBIT_TYPE":"Geosynchronous","OPERATIONAL_STATUS":"Operational","satInfo":{"lng":-121.13419339108094,"lat":-2.1392756550285896,"elevation":-10.66291401683135,"azimuth":76.13419339108091,"range":42849.87759797721,"height":35761.18148987485,"velocity":3.0759662322017087},"x":-306,"y":185},{"OBJECT_ID":"2001-002A","OBJECT_NAME":"TURKSAT 2A","NORAD_CAT_ID":"26666","OBJECT_TYPE":"PAYLOAD","PERIOD":"1436.177","INCLINATION":"0.536","APOGEE":"35802.547","PERIGEE":"35773.782","ECCENTRICITY":"0.0003411","MEAN_MOTION":"1.00266192","TLE_LINE1":"1 26666U 01002A   16238.19527586  .00000000  00000-0  10000-3 0  9996","TLE_LINE2":"2 26666   0.5360  84.7113 0003411  53.4730 307.8437  1.00266192 57244","LAUNCH_DATE":"2001-01-10","LAUNCH_SITE":"FRENCH GUIANA","OWNER":"TURKEY","ORBIT_TYPE":"Geosynchronous","OPERATIONAL_STATUS":"Operational","satInfo":{"lng":97.8001219245349,"lat":-1.816947789934471,"elevation":-10.345691412121326,"azimuth":217.1998780754651,"range":42834.35701416478,"height":35780.99997172575,"velocity":3.0745682079519736},"x":354,"y":49},{"OBJECT_ID":"2001-011A","OBJECT_NAME":"EUTE 28A (EB 1)","NORAD_CAT_ID":"26719","OBJECT_TYPE":"PAYLOAD","PERIOD":"1436.141","INCLINATION":"0.0695","APOGEE":"35799.570","PERIGEE":"35775.384","ECCENTRICITY":"0.0002868","MEAN_MOTION":"1.00268644","TLE_LINE1":"1 26719U 01011A   16238.08104793 +.00000130 +00000-0 +00000-0 0  9994","TLE_LINE2":"2 26719 000.0695 336.7071 0002868 195.5082 223.8190 01.00268644056656","LAUNCH_DATE":"2001-03-08","LAUNCH_SITE":"FRENCH GUIANA","OWNER":"EUROPEAN TELECOMMUNICATIONS SATELLITE ORGANIZATION (EUTELSAT)","ORBIT_TYPE":"Geosynchronous","OPERATIONAL_STATUS":"Operational","satInfo":{"lng":85.41569083206957,"lat":0.8021102770746942,"elevation":-7.79200316973245,"azimuth":229.58430916793043,"range":42541.23781848277,"height":35774.43428918345,"velocity":3.0747084667985867},"x":357,"y":-29}]